NORAD_CAT_ID,OBJECT_NAME,OBJECT_TYPE,EPOCH,MEAN_MOTION,ECCENTRICITY,INCLINATION,RA_OF_ASC_NODE,ARG_OF_PERICENTER,MEAN_ANOMALY,BSTAR,MEAN_MOTION_DOT,MEAN_MOTION_DDOT,TLE_LINE0,TLE_LINE1,TLE_LINE2,SEMIMAJOR_AXIS,PERIOD,APOGEE,PERIGEE,DECAYED
56448.0,STARLINK-5990,PAYLOAD,2023-06-07 08:53:21,15.69922867,0.0003469,69.9971,167.5914,265.5339,94.546,7.1625e-06,6.48e-06,0.0,0 STARLINK-5990,1 56448U 23064A   23158.37038336  .00000648  00000-0  71625-5 0  9998,2 56448  69.9971 167.5914 0003469 265.5339  94.5460 15.69922867  4364,6737.255,91.724,361.457,356.783,0.0
56448.0,STARLINK-5990,PAYLOAD,2023-06-07 18:03:51,15.69928328,0.0003417,69.9972,166.5178,268.2856,91.7948,1.5233e-05,1.619e-05,0.0,0 STARLINK-5990,1 56448U 23064A   23158.75267898  .00001619  00000-0  15233-4 0  9998,2 56448  69.9972 166.5178 0003417 268.2856  91.7948 15.69928328  4428,6737.239,91.724,361.406,356.802,0.0
56448.0,STARLINK-5990,PAYLOAD,2023-06-08 01:42:38,15.69912365,0.0003705,69.9971,165.6215,263.1595,96.9179,-6.5385e-07,-2.92e-06,0.0,0 STARLINK-5990,1 56448U 23064A   23159.07127500 -.00000292  00000-0 -65385-6 0  9992,2 56448  69.9971 165.6215 0003705 263.1595  96.9179 15.69912365  4824,6737.285,91.725,361.646,356.654,0.0
56448.0,STARLINK-5990,PAYLOAD,2023-06-08 09:21:43,15.69662541,0.0003805,69.9973,164.7275,281.3618,78.715,-0.00027403,-0.00032684,0.0,0 STARLINK-5990,1 56448U 23064A   23159.39008909 -.00032684  00000-0 -27403-3 0  9994,2 56448  69.9973 164.7275 0003805 281.3618  78.7150 15.69662541  4871,6738.0,91.739,362.428,357.301,0.0
56448.0,STARLINK-5990,PAYLOAD,2023-06-09 12:55:53,15.68071845,0.000364,69.997,161.5091,261.5077,98.5705,-0.0018553,-0.00202056,0.0,0 STARLINK-5990,1 56448U 23064A   23160.53881381 -.00202056  00000-0 -18553-2 0  9992,2 56448  69.9970 161.5091 0003640 261.5077  98.5705 15.68071845  4703,6742.556,91.833,366.875,361.966,0.0
56448.0,STARLINK-5990,PAYLOAD,2023-06-09 14:00:01,15.66901065,0.0003576,69.9995,161.3797,269.9691,344.7793,-0.010023,-0.00966029,0.0,0 STARLINK-5990,1 56448U 23064A   23160.58334491 -.00966029  00000-0 -10023-1 0  9992,2 56448  69.9995 161.3797 0003576 269.9691 344.7793 15.66901065  5060,6745.914,91.901,370.191,365.367,0.0
56448.0,STARLINK-5990,PAYLOAD,2023-06-09 22:00:00,15.66213623,0.0003739,69.9997,160.4473,265.6402,68.3936,-0.0094529,-0.00892877,0.0,0 STARLINK-5990,1 56448U 23064A   23160.91667824 -.00892877  00000-0 -94529-2 0  9991,2 56448  69.9997 160.4473 0003739 265.6402  68.3936 15.66213623  1304,6747.888,91.941,372.276,367.23,0.0
56448.0,STARLINK-5990,PAYLOAD,2023-06-10 06:00:02,15.6554954,0.0003711,69.9998,159.5157,272.5489,140.0583,-0.0097333,-0.00894909,0.0,0 STARLINK-5990,1 56448U 23064A   23161.25002315 -.00894909  00000-0 -97333-2 0  9991,2 56448  69.9998 159.5157 0003711 272.5489 140.0583 15.65549540  5168,6749.796,91.98,374.166,369.156,0.0
56448.0,STARLINK-5990,PAYLOAD,2023-06-10 14:00:01,15.6494598,0.0003415,69.9996,158.585,273.097,217.1397,-0.010871,-0.00968094,0.0,0 STARLINK-5990,1 56448U 23064A   23161.58334491 -.00968094  00000-0 -10871-1 0  9998,2 56448  69.9996 158.5850 0003415 273.0970 217.1397 15.64945980  1305,6751.531,92.016,375.702,371.09,0.0
56448.0,STARLINK-5990,PAYLOAD,2023-06-10 22:00:00,15.64262374,0.0003388,69.9999,157.6555,264.3279,302.8457,-0.010314,-0.00900174,0.0,0 STARLINK-5990,1 56448U 23064A   23161.91667824 -.00900174  00000-0 -10314-1 0  9991,2 56448  69.9999 157.6555 0003388 264.3279 302.8457 15.64262374  1302,6753.498,92.056,377.651,373.075,0.0
56448.0,STARLINK-5990,PAYLOAD,2023-06-11 14:00:01,15.62991286,0.0003538,69.9994,155.7987,272.5107,86.1749,-0.011813,-0.00973085,0.0,0 STARLINK-5990,1 56448U 23064A   23162.58334491 -.00973085  00000-0 -11813-1 0  9992,2 56448  69.9994 155.7987 0003538 272.5107  86.1749 15.62991286  5379,6757.159,92.131,381.415,376.633,0.0
56448.0,STARLINK-5990,PAYLOAD,2023-06-11 22:00:00,15.62311035,0.0003396,69.9995,154.8716,267.6754,165.599,-0.011274,-0.00910204,0.0,0 STARLINK-5990,1 56448U 23064A   23162.91667824 -.00910204  00000-0 -11274-1 0  9993,2 56448  69.9995 154.8716 0003396 267.6754 165.5990 15.62311035  5430,6759.12,92.171,383.281,378.69,0.0
56448.0,STARLINK-5990,PAYLOAD,2023-06-12 14:00:01,15.61024182,0.0003138,69.9991,153.02,270.6375,309.5247,-0.012546,-0.00958459,0.0,0 STARLINK-5990,1 56448U 23064A   23163.58335648 -.00958459  00000-0 -12546-1 0  9990,2 56448  69.9991 153.0200 0003138 270.6375 309.5247 15.61024182  5531,6762.834,92.247,386.822,382.577,0.0
56448.0,STARLINK-5990,PAYLOAD,2023-06-12 22:00:00,15.60364053,0.0003359,69.9994,152.0959,263.8189,28.5126,-0.012372,-0.00924784,0.0,0 STARLINK-5990,1 56448U 23064A   23163.91667824 -.00924784  00000-0 -12372-1 0  9992,2 56448  69.9994 152.0959 0003359 263.8189  28.5126 15.60364053  1304,6764.742,92.286,388.879,384.334,0.0
56448.0,STARLINK-5990,PAYLOAD,2023-06-13 06:00:02,15.59668318,0.0003318,69.9991,151.1725,271.0171,92.8566,-0.011924,-0.00872617,0.0,0 STARLINK-5990,1 56448U 23064A   23164.25002315 -.00872617  00000-0 -11924-1 0  9997,2 56448  69.9991 151.1725 0003318 271.0171  92.8566 15.59668318  5630,6766.753,92.327,390.863,386.373,0.0
56448.0,STARLINK-5990,PAYLOAD,2023-06-13 14:00:01,15.59058059,0.0003258,69.9986,150.2498,271.9769,162.49,-0.013263,-0.00941351,0.0,0 STARLINK-5990,1 56448U 23064A   23164.58334491 -.00941351  00000-0 -13263-1 0  9996,2 56448  69.9986 150.2498 0003258 271.9769 162.4900 15.59058059  1307,6768.519,92.363,392.589,388.179,0.0
56448.0,STARLINK-5990,PAYLOAD,2023-06-13 22:00:00,15.58404047,0.0003162,69.9988,149.3282,265.6992,238.6537,-0.013252,-0.00919597,0.0,0 STARLINK-5990,1 56448U 23064A   23164.91667824 -.00919597  00000-0 -13252-1 0  9997,2 56448  69.9988 149.3282 0003162 265.6992 238.6537 15.58404047  5746,6770.413,92.402,394.418,390.137,0.0
56448.0,STARLINK-5990,PAYLOAD,2023-06-14 14:00:01,15.57103254,0.0003221,69.9985,147.4873,271.097,10.6977,-0.014385,-0.00947639,0.0,0 STARLINK-5990,1 56448U 23064A   23165.58334491 -.00947639  00000-0 -14385-1 0  9998,2 56448  69.9985 147.4873 0003221 271.0970  10.6977 15.57103254  1300,6774.183,92.479,398.23,393.866,0.0
56448.0,STARLINK-5990,PAYLOAD,2023-06-14 22:00:00,15.56449652,0.0003423,69.9988,146.5686,267.2549,82.0771,-0.014279,-0.00920681,0.0,0 STARLINK-5990,1 56448U 23064A   23165.91667824 -.00920681  00000-0 -14279-1 0  9994,2 56448  69.9988 146.5686 0003423 267.2549  82.0771 15.56449652  5895,6776.079,92.518,400.263,395.624,0.0
56448.0,STARLINK-5990,PAYLOAD,2023-06-15 14:00:01,15.55140307,0.0003291,69.9984,144.7331,273.0708,209.0131,-0.015278,-0.00936704,0.0,0 STARLINK-5990,1 56448U 23064A   23166.58334491 -.00936704  00000-0 -15278-1 0  9992,2 56448  69.9984 144.7331 0003291 273.0708 209.0131 15.55140307  1300,6779.882,92.596,403.978,399.516,0.0
56448.0,STARLINK-5990,PAYLOAD,2023-06-15 20:00:01,15.54624404,0.0003463,69.9987,144.046,268.417,172.6411,-0.014417,-0.00873275,0.0,0 STARLINK-5990,1 56448U 23064A   23166.83334491 -.00873275  00000-0 -14417-1 0  9997,2 56448  69.9987 144.0460 0003463 268.4170 172.6411 15.54624404  6047,6781.382,92.627,405.595,400.898,0.0
56448.0,STARLINK-5990,PAYLOAD,2023-06-16 06:00:00,15.53794566,0.0003486,69.9989,142.9016,270.7635,340.9475,-0.014743,-0.00866878,0.0,0 STARLINK-5990,1 56448U 23064A   23167.25001157 -.00866878  00000-0 -14743-1 0  9997,2 56448  69.9989 142.9016 0003486 270.7635 340.9475 15.53794566  6103,6783.796,92.676,408.026,403.296,0.0
56448.0,STARLINK-5990,PAYLOAD,2023-06-16 14:00:01,15.53184844,0.0003551,69.9985,141.987,269.016,46.3132,-0.016458,-0.00939107,0.0,0 STARLINK-5990,1 56448U 23064A   23167.58334491 -.00939107  00000-0 -16458-1 0  9994,2 56448  69.9985 141.9870 0003551 269.0160  46.3132 15.53184844  1309,6785.571,92.713,409.846,405.027,0.0
56448.0,STARLINK-5990,PAYLOAD,2023-06-16 22:00:00,15.5253947,0.0003565,69.9989,141.0736,266.9259,111.2456,-0.016652,-0.00929186,0.0,0 STARLINK-5990,1 56448U 23064A   23167.91667824 -.00929186  00000-0 -16652-1 0  9992,2 56448  69.9989 141.0736 0003565 266.9259 111.2456 15.52539470  6208,6787.452,92.751,411.736,406.897,0.0
56448.0,STARLINK-5990,PAYLOAD,2023-06-17 14:00:01,15.51254089,0.0003274,69.9988,139.249,272.4831,229.0525,-0.0013987,-0.0008157,0.0,0 STARLINK-5990,1 56448U 23064A   23168.58334491 -.00081570  00000-0 -13987-2 0  9992,2 56448  69.9988 139.2490 0003274 272.4831 229.0525 15.51254089  6314,6791.2,92.828,415.289,410.842,0.0
56448.0,STARLINK-5990,PAYLOAD,2023-06-17 21:08:19,15.52625803,6.05e-05,69.9971,138.4414,15.8631,344.2574,-0.0037576,-0.00225682,0.0,0 STARLINK-5990,1 56448U 23064A   23168.88078424 -.00225682  00000-0 -37576-2 0  9990,2 56448  69.9971 138.4414 0000605  15.8631 344.2574 15.52625803  6002,6787.2,92.746,409.476,408.654,0.0
56448.0,STARLINK-5990,PAYLOAD,2023-06-17 22:00:01,15.5121292,0.0003264,69.9993,138.3377,266.0388,296.4659,0.00052712,0.00030906,0.0,0 STARLINK-5990,1 56448U 23064A   23168.91668981  .00030906  00000-0  52712-3 0  9998,2 56448  69.9993 138.3377 0003264 266.0388 296.4659 15.51212920  6368,6791.321,92.831,415.402,410.969,0.0
56448.0,STARLINK-5990,PAYLOAD,2023-06-18 14:00:01,15.51427016,0.0003365,69.999,136.5151,266.7055,57.6053,-0.012697,-0.00689363,0.0,0 STARLINK-5990,1 56448U 23064A   23169.58335648 -.00689363  00000-0 -12697-1 0  9998,2 56448  69.9990 136.5151 0003365 266.7055  57.6053 15.51427016  6465,6790.696,92.818,414.846,410.276,0.0
56448.0,STARLINK-5990,PAYLOAD,2023-06-18 22:00:00,15.50964233,0.0003407,69.9995,135.604,263.6526,121.4542,-0.017738,-0.00947794,0.0,0 STARLINK-5990,1 56448U 23064A   23169.91667824 -.00947794  00000-0 -17738-1 0  9995,2 56448  69.9995 135.6040 0003407 263.6526 121.4542 15.50964233  6518,6792.047,92.845,416.226,411.597,0.0
56448.0,STARLINK-5990,PAYLOAD,2023-06-19 13:23:14,15.50593259,0.0003546,69.9974,133.8572,276.2008,83.8774,-0.0022162,-0.00125469,0.0,0 STARLINK-5990,1 56448U 23064A   23170.55780782 -.00125469  00000-0 -22162-2 0  9991,2 56448  69.9974 133.8572 0003546 276.2008  83.8774 15.50593259  6260,6793.13,92.868,417.404,412.586,0.0
